INSAT-3DS               
1 58990U 24033A   26177.68188024 -.00000144  00000+0  00000+0 0  9991
2 58990   0.0608 100.8725 0001468 344.9588 156.5219  1.00270688 47169
METEOR-M2 4             
1 59051U 24039A   26177.74994760  .00000002  00000+0  20744-4 0  9999
2 59051  98.7014 136.9279 0007790 135.2995 224.8812 14.22430436120622
GOES 19                 
1 60133U 24119A   26177.57946811 -.00000237  00000+0  00000+0 0  9995
2 60133   0.0028 105.6097 0000612  37.8145 264.6931  1.00272215  7053
MTG-S1                  
1 64723U 25143A   26175.74071355  .00000023  00000+0  00000+0 0  9993
2 64723   0.5970 340.6178 0000585 288.6722 269.7793  1.00400949  3493
METOP-SGA1              
1 65159U 25172A   26177.72378612  .00000037  00000+0  37947-4 0  9995
2 65159  98.6642 237.2491 0008117  26.0511 334.1072 14.19816506 45148
FENGYUN 3H              
1 65815U 25219A   26177.76539000  .00000031  00000+0  34793-4 0  9990
2 65815  98.6769 118.3483 0001512  70.5569 289.5771 14.19921963 38747
